{"type": "FeatureCollection", "features": [ {"type": "Feature", "properties": {"norad_id": 31444, "name": "FENGYUN 1C DEB", "group": "fengyun-1c-debris", "lat": 31.585664005055104, "lon": 103.30621042307494, "alt_km": 629.487134307481, "timestamp": "2025-12-02T15:49:07.472433+00:00", "meta": {"OBJECT_NAME": "FENGYUN 1C DEB", "OBJECT_ID": "1999-025BUG", "EPOCH": "2025-12-01T01:34:11.823168", "MEAN_MOTION": 14.69575715, "ECCENTRICITY": 0.00621515, "INCLINATION": 98.9261, "RA_OF_ASC_NODE": 276.0198, "ARG_OF_PERICENTER": 107.7343, "MEAN_ANOMALY": 253.0657, "EPHEMERIS_TYPE": 0, "CLASSIFICATION_TYPE": "U", "NORAD_CAT_ID": 31444, "ELEMENT_SET_NO": 999, "REV_AT_EPOCH": 97317, "BSTAR": 0.001770694, "MEAN_MOTION_DOT": 0.00010787, "MEAN_MOTION_DDOT": 0}, "tle": {"line1": "1 31444U 99025BUG 25335.06541462  .00010787  00000+0  17707-2 0  9993", "line2": "2 31444  98.9261 276.0198 0062151 107.7343 253.0657 14.69575715973171"}}, "geometry": {"type": "Point", "coordinates": [103.30621042307494, 31.585664005055104]}}, {"type": "Feature", "properties": {"norad_id": 31447, "name": "FENGYUN 1C DEB", "group": "fengyun-1c-debris", "lat": 44.320310207225205, "lon": 8.77746698326982, "alt_km": 652.448671485884, "timestamp": "2025-12-02T15:49:07.472443+00:00", "meta": {"OBJECT_NAME": "FENGYUN 1C DEB", "OBJECT_ID": "1999-025BUK", "EPOCH": "2025-11-29T08:21:43.391232", "MEAN_MOTION": 14.24014054, "ECCENTRICITY": 0.02308258, "INCLINATION": 98.9936, "RA_OF_ASC_NODE": 14.2854, "ARG_OF_PERICENTER": 33.7171, "MEAN_ANOMALY": 327.8449, "EPHEMERIS_TYPE": 0, "CLASSIFICATION_TYPE": "U", "NORAD_CAT_ID": 31447, "ELEMENT_SET_NO": 999, "REV_AT_EPOCH": 64661, "BSTAR": 0.00017749079, "MEAN_MOTION_DOT": 4.86e-06, "MEAN_MOTION_DDOT": 0}, "tle": {"line1": "1 31447U 99025BUK 25333.34841888  .00000486  00000+0  17749-3 0  9992", "line2": "2 31447  98.9936  14.2854 0230825  33.7171 327.8449 14.24014054646616"}}, "geometry": {"type": "Point", "coordinates": [8.77746698326982, 44.320310207225205]}}, {"type": "Feature", "properties": {"norad_id": 31448, "name": "FENGYUN 1C DEB", "group": "fengyun-1c-debris", "lat": -73.9327658162991, "lon": 19.535946915222294, "alt_km": 778.9919645033588, "timestamp": "2025-12-02T15:49:07.472454+00:00", "meta": {"OBJECT_NAME": "FENGYUN 1C DEB", "OBJECT_ID": "1999-025BUL", "EPOCH": "2025-11-28T06:12:48.926304", "MEAN_MOTION": 14.27738865, "ECCENTRICITY": 0.00586957, "INCLINATION": 98.5052, "RA_OF_ASC_NODE": 343.9503, "ARG_OF_PERICENTER": 247.1934, "MEAN_ANOMALY": 112.304, "EPHEMERIS_TYPE": 0, "CLASSIFICATION_TYPE": "U", "NORAD_CAT_ID": 31448, "ELEMENT_SET_NO": 999, "REV_AT_EPOCH": 64097, "BSTAR": 0.00073907687, "MEAN_MOTION_DOT": 1.815e-05, "MEAN_MOTION_DDOT": 0}, "tle": {"line1": "1 31448U 99025BUL 25332.25889961  .00001815  00000+0  73908-3 0  9992", "line2": "2 31448  98.5052 343.9503 0058695 247.1934 112.3040 14.27738865640979"}}, "geometry": {"type": "Point", "coordinates": [19.535946915222294, -73.9327658162991]}}, {"type": "Feature", "properties": {"norad_id": 31449, "name": "FENGYUN 1C DEB", "group": "fengyun-1c-debris", "lat": 53.07582609450778, "lon": 23.724483144306994, "alt_km": 817.045377549458, "timestamp": "2025-12-02T15:49:07.472465+00:00", "meta": {"OBJECT_NAME": "FENGYUN 1C DEB", "OBJECT_ID": "1999-025BUM", "EPOCH": "2025-11-28T21:07:14.377728", "MEAN_MOTION": 14.33679291, "ECCENTRICITY": 0.01442993, "INCLINATION": 98.557, "RA_OF_ASC_NODE": 31.5442, "ARG_OF_PERICENTER": 310.0752, "MEAN_ANOMALY": 48.7853, "EPHEMERIS_TYPE": 0, "CLASSIFICATION_TYPE": "U", "NORAD_CAT_ID": 31449, "ELEMENT_SET_NO": 999, "REV_AT_EPOCH": 97438, "BSTAR": 0.00021805913, "MEAN_MOTION_DOT": 6.31e-06, "MEAN_MOTION_DDOT": 0}, "tle": {"line1": "1 31449U 99025BUM 25332.88002752  .00000631  00000+0  21806-3 0  9992", "line2": "2 31449  98.5570  31.5442 0144299 310.0752  48.7853 14.33679291974384"}}, "geometry": {"type": "Point", "coordinates": [23.724483144306994, 53.07582609450778]}}, {"type": "Feature", "properties": {"norad_id": 31451, "name": "FENGYUN 1C DEB", "group": "fengyun-1c-debris", "lat": -11.248888453041623, "lon": -162.8245167516912, "alt_km": 836.8343517311596, "timestamp": "2025-12-02T15:49:07.472475+00:00", "meta": {"OBJECT_NAME": "FENGYUN 1C DEB", "OBJECT_ID": "1999-025BUP", "EPOCH": "2025-12-01T21:05:06.089280", "MEAN_MOTION": 14.13599737, "ECCENTRICITY": 0.00307329, "INCLINATION": 98.7648, "RA_OF_ASC_NODE": 18.169, "ARG_OF_PERICENTER": 242.8982, "MEAN_ANOMALY": 298.5579, "EPHEMERIS_TYPE": 0, "CLASSIFICATION_TYPE": "U", "NORAD_CAT_ID": 31451, "ELEMENT_SET_NO": 999, "REV_AT_EPOCH": 95856, "BSTAR": 0.00042989773, "MEAN_MOTION_DOT": 7.71e-06, "MEAN_MOTION_DDOT": 0}, "tle": {"line1": "1 31451U 99025BUP 25335.87854270  .00000771  00000+0  42990-3 0  9999", "line2": "2 31451  98.7648  18.1690 0030732 242.8982 298.5579 14.13599737958560"}}, "geometry": {"type": "Point", "coordinates": [-162.8245167516912, -11.248888453041623]}}, {"type": "Feature", "properties": {"norad_id": 31452, "name": "FENGYUN 1C DEB", "group": "fengyun-1c-debris", "lat": 32.09169417319284, "lon": -41.58501050086811, "alt_km": 856.0401920440654, "timestamp": "2025-12-02T15:49:07.472485+00:00", "meta": {"OBJECT_NAME": "FENGYUN 1C DEB", "OBJECT_ID": "1999-025BUQ", "EPOCH": "2025-12-02T05:28:59.849472", "MEAN_MOTION": 14.15144252, "ECCENTRICITY": 0.00403096, "INCLINATION": 98.658, "RA_OF_ASC_NODE": 323.48, "ARG_OF_PERICENTER": 157.7123, "MEAN_ANOMALY": 202.5814, "EPHEMERIS_TYPE": 0, "CLASSIFICATION_TYPE": "U", "NORAD_CAT_ID": 31452, "ELEMENT_SET_NO": 999, "REV_AT_EPOCH": 96057, "BSTAR": 0.00046116338, "MEAN_MOTION_DOT": 8.6e-06, "MEAN_MOTION_DDOT": 0}, "tle": {"line1": "1 31452U 99025BUQ 25336.22847048  .00000860  00000+0  46116-3 0  9998", "line2": "2 31452  98.6580 323.4800 0040309 157.7123 202.5814 14.15144252960573"}}, "geometry": {"type": "Point", "coordinates": [-41.58501050086811, 32.09169417319284]}}, {"type": "Feature", "properties": {"norad_id": 31455, "name": "FENGYUN 1C DEB", "group": "fengyun-1c-debris", "lat": 29.992931408372343, "lon": 150.3267446888345, "alt_km": 794.8765185048342, "timestamp": "2025-12-02T15:49:07.472496+00:00", "meta": {"OBJECT_NAME": "FENGYUN 1C DEB", "OBJECT_ID": "1999-025BUT", "EPOCH": "2025-12-01T05:06:27.684288", "MEAN_MOTION": 14.11407074, "ECCENTRICITY": 0.0218887, "INCLINATION": 98.5737, "RA_OF_ASC_NODE": 323.9486, "ARG_OF_PERICENTER": 84.0104, "MEAN_ANOMALY": 278.5966, "EPHEMERIS_TYPE": 0, "CLASSIFICATION_TYPE": "U", "NORAD_CAT_ID": 31455, "ELEMENT_SET_NO": 999, "REV_AT_EPOCH": 95941, "BSTAR": 0.00026567, "MEAN_MOTION_DOT": 5.62e-06, "MEAN_MOTION_DDOT": 0}, "tle": {"line1": "1 31455U 99025BUT 25335.21282042  .00000562  00000+0  26567-3 0  9993", "line2": "2 31455  98.5737 323.9486 0218887  84.0104 278.5966 14.11407074959415"}}, "geometry": {"type": "Point", "coordinates": [150.3267446888345, 29.992931408372343]}}, {"type": "Feature", "properties": {"norad_id": 31456, "name": "FENGYUN 1C DEB", "group": "fengyun-1c-debris", "lat": 81.35074099171032, "lon": -3.933169023779934, "alt_km": 754.7196957780116, "timestamp": "2025-12-02T15:49:07.472507+00:00", "meta": {"OBJECT_NAME": "FENGYUN 1C DEB", "OBJECT_ID": "1999-025BUU", "EPOCH": "2025-12-01T12:46:16.695552", "MEAN_MOTION": 14.42301332, "ECCENTRICITY": 0.00678284, "INCLINATION": 98.5781, "RA_OF_ASC_NODE": 77.816, "ARG_OF_PERICENTER": 348.4269, "MEAN_ANOMALY": 11.5358, "EPHEMERIS_TYPE": 0, "CLASSIFICATION_TYPE": "U", "NORAD_CAT_ID": 31456, "ELEMENT_SET_NO": 999, "REV_AT_EPOCH": 97305, "BSTAR": 0.00080227123, "MEAN_MOTION_DOT": 2.676e-05, "MEAN_MOTION_DDOT": 0}, "tle": {"line1": "1 31456U 99025BUU 25335.53213768  .00002676  00000+0  80227-3 0  9999", "line2": "2 31456  98.5781  77.8160 0067828 348.4269  11.5358 14.42301332973055"}}, "geometry": {"type": "Point", "coordinates": [-3.933169023779934, 81.35074099171032]}}, {"type": "Feature", "properties": {"norad_id": 31459, "name": "FENGYUN 1C DEB", "group": "fengyun-1c-debris", "lat": -28.179036569155574, "lon": -110.27297111192809, "alt_km": 816.5798508254902, "timestamp": "2025-12-02T15:49:07.472517+00:00", "meta": {"OBJECT_NAME": "FENGYUN 1C DEB", "OBJECT_ID": "1999-025BUX", "EPOCH": "2025-11-29T11:26:52.184832", "MEAN_MOTION": 14.4388821, "ECCENTRICITY": 0.00932651, "INCLINATION": 98.1728, "RA_OF_ASC_NODE": 242.2547, "ARG_OF_PERICENTER": 172.3319, "MEAN_ANOMALY": 187.9324, "EPHEMERIS_TYPE": 0, "CLASSIFICATION_TYPE": "U", "NORAD_CAT_ID": 31459, "ELEMENT_SET_NO": 999, "REV_AT_EPOCH": 64366, "BSTAR": 0.0012379846, "MEAN_MOTION_DOT": 4.409e-05, "MEAN_MOTION_DDOT": 0}, "tle": {"line1": "1 31459U 99025BUX 25333.47699288  .00004409  00000+0  12380-2 0  9998", "line2": "2 31459  98.1728 242.2547 0093265 172.3319 187.9324 14.43888210643664"}}, "geometry": {"type": "Point", "coordinates": [-110.27297111192809, -28.179036569155574]}}, {"type": "Feature", "properties": {"norad_id": 31462, "name": "FENGYUN 1C DEB", "group": "fengyun-1c-debris", "lat": -15.066349222932127, "lon": 172.99636607339357, "alt_km": 835.9539438230904, "timestamp": "2025-12-02T15:49:07.472527+00:00", "meta": {"OBJECT_NAME": "FENGYUN 1C DEB", "OBJECT_ID": "1999-025BVA", "EPOCH": "2025-12-01T12:26:00.233664", "MEAN_MOTION": 14.12988365, "ECCENTRICITY": 0.00314859, "INCLINATION": 98.6906, "RA_OF_ASC_NODE": 354.2485, "ARG_OF_PERICENTER": 236.8401, "MEAN_ANOMALY": 277.4849, "EPHEMERIS_TYPE": 0, "CLASSIFICATION_TYPE": "U", "NORAD_CAT_ID": 31462, "ELEMENT_SET_NO": 999, "REV_AT_EPOCH": 95697, "BSTAR": 0.00039554017, "MEAN_MOTION_DOT": 6.98e-06, "MEAN_MOTION_DDOT": 0}, "tle": {"line1": "1 31462U 99025BVA 25335.51805826  .00000698  00000+0  39554-3 0  9995", "line2": "2 31462  98.6906 354.2485 0031485 236.8401 277.4849 14.12988365956976"}}, "geometry": {"type": "Point", "coordinates": [172.99636607339357, -15.066349222932127]}}]}